satname,norad_id,inclination_deg,eccentricity,mean_motion_rev_per_day,perigee_km,apogee_km,l1,l2
STARLINK-1420,45695,53.0468,0.0005499,15.66780808,364.4122653700124,371.8318010547391,1 45695U 20035AQ  26147.86468475  .00062971  00000+0  58638-3 0  9994,2 45695  53.0468 356.0330 0005499 101.7324 258.4308 15.66780808331727
STARLINK-1422,45696,53.16,0.0003815,15.33886431,461.61973833504817,466.8404644334041,1 45696U 20035AR  26147.93774528  .00028443  00000+0  86353-3 0  9993,2 45696  53.1600  40.7736 0003815  92.5354 267.6085 15.33886431331114
STARLINK-1351,45697,53.0441,0.0005491,15.65215862,368.91117523876164,376.3248543960344,1 45697U 20035AS  26147.81036518  .00043452  00000+0  43351-3 0  9999,2 45697  53.0441 356.5961 0005491 123.6638 236.4900 15.65215862331713
STARLINK-1400,45700,53.0435,0.0003073,15.63461198,375.5919020865176,379.7440198155191,1 45700U 20035AV  26147.94279453  .00095301  00000+0  10061-2 0  9996,2 45700  53.0435 358.4037 0003073  69.6157 290.5186 15.63461198331692
STARLINK-1403,45701,53.1567,0.0002578,15.32862824,465.51112141701924,469.04061629220087,1 45701U 20035AW  26147.94323494  .00052247  00000+0  16235-2 0  9993,2 45701  53.1567  28.2163 0002578 130.6629 229.4597 15.32862824331283
STARLINK-1407,45703,53.0276,0.0004504,15.72165236,349.67837655223866,355.74152348481584,1 45703U 20035AY  26147.67329300  .00077457  00000+0  57564-3 0  9998,2 45703  53.0276 287.0077 0004504   4.6935 355.4123 15.72165236332677
STARLINK-1411,45706,53.0315,0.0005185,15.85051787,312.70791825103515,319.6499238611714,1 45706U 20035BB  26148.00002315  .00273923  00000+0  11069-2 0  9998,2 45706  53.0315 307.9557 0005185 298.4630 255.6477 15.85051787  5961
STARLINK-1423,45710,53.0454,0.0006723,15.67722473,360.8866062823163,369.95399342769997,1 45710U 20035BF  26147.83825024  .00062022  00000+0  55588-3 0  9994,2 45710  53.0454 355.6822 0006723  71.2300 288.9444 15.67722473331710
STARLINK-1433,45711,53.0441,0.0006712,15.67289491,362.13512433010146,371.1893428212534,1 45711U 20035BG  26147.94826444  .00058826  00000+0  53705-3 0  9990,2 45711  53.0441 353.7063 0006712  76.4041 283.7722 15.67289491331754
STARLINK-1434,45712,53.0511,0.0002814,15.33275884,464.12043775266557,467.97234416509764,1 45712U 20035BH  26147.92193664  .00039748  00000+0  12238-2 0  9997,2 45712  53.0511  11.0458 0002814  78.3736 281.7581 15.33275884331526
STARLINK-1465,45731,53.0442,0.0001421,15.64808881,372.8290222214209,374.74791944023127,1 45731U 20038B   26148.00002315  .00023930  00000+0  24582-3 0  9995,2 45731  53.0442 198.8789 0001421  70.2099 225.8218 15.64808881  5962
STARLINK-1471,45735,53.0457,0.0003233,15.52841075,406.24152883166425,410.6297266927759,1 45735U 20038F   26147.64637475  .00029306  00000+0  47015-3 0  9998,2 45735  53.0457 122.5376 0003233  83.8491 276.2886 15.52841075329786
STARLINK-1480,45741,53.0477,0.0005988,15.63854983,372.4891238160808,380.578517590955,1 45741U 20038M   26147.41188626  .00097493  00000+0  10125-2 0  9992,2 45741  53.0477 195.3561 0005988 355.4362   4.6596 15.63854983328743
STARLINK-1500,45744,53.035,0.0002169,15.38589779,448.79751833927094,451.7596850272821,1 45744U 20038Q   26147.36606800  .00027933  00000+0  72979-3 0  9996,2 45744  53.0350 182.5377 0002169  96.1659 263.9591 15.38589779328919
STARLINK-1504,45746,53.0189,0.0003752,15.58178929,390.3870857195361,395.46809258723624,1 45746U 20038S   26147.89169541  .00038064  00000+0  49955-3 0  9997,2 45746  53.0189 118.5457 0003752  68.2316 291.9094 15.58178929329843
STARLINK-1506,45747,53.0755,0.0003019,15.28056565,479.55149849323243,483.6934212551041,1 45747U 20038T   26147.45049150  .00006813  00000+0  25812-3 0  9996,2 45747  53.0755 197.4613 0003019 122.8134 237.3156 15.28056565328721
STARLINK-1464,45751,53.0455,0.000416,15.53453686,403.82882955161585,409.47377341845095,1 45751U 20038X   26147.80662306  .00038323  00000+0  59838-3 0  9990,2 45751  53.0455 185.6264 0004160   6.9489 353.1577 15.53453686328915
STARLINK-1477,45754,53.0489,0.0001157,15.18295929,510.1934351235968,511.78757922875866,1 45754U 20038AA  26147.59162523  .00023203  00000+0  11294-2 0  9999,2 45754  53.0489 213.2073 0001157 328.0415  32.0508 15.18295929328508
STARLINK-1478,45755,53.0445,0.0004771,15.66948436,364.4224826997852,370.8593039656025,1 45755U 20038AB  26147.79512201  .00057097  00000+0  52905-3 0  9997,2 45755  53.0445 171.5556 0004771  33.5811 326.5505 15.66948436329090
STARLINK-1493,45759,53.0458,0.000753,15.6320857,373.30813641437817,383.4834748196372,1 45759U 20038AF  26147.92140354  .00094199  00000+0  10035-2 0  9993,2 45759  53.0458 180.3430 0007530 353.8876   6.2045 15.63208570328985
STARLINK-1494,45760,53.0377,0.0003848,15.99679247,272.74769893667053,277.8681901659975,1 45760U 20038AG  26148.00002315  .00360052  65784-4  70356-3 0  9991,2 45760  53.0377 110.9238 0003848  57.0650 113.4249 15.99679247  5984
STARLINK-1502,45764,53.047,0.0006967,15.59528441,384.3061946034768,393.7355523844026,1 45764U 20038AL  26147.37137224  .00078259  00000+0  96396-3 0  9994,2 45764  53.0470 186.5400 0006967 331.7698  28.2936 15.59528441328867
STARLINK-1470,45772,53.0435,0.0004017,15.34226889,460.4696387315598,465.96598318668384,1 45772U 20038AU  26147.77511414  .00032627  00000+0  97769-3 0  9998,2 45772  53.0435 165.3455 0004017   2.4822 357.6198 15.34226889329197
STARLINK-1482,45773,53.157,0.0005028,15.36711402,452.4057542845758,459.27800344516345,1 45773U 20038AV  26147.80304000  .00022103  00000+0  61618-3 0  9996,2 45773  53.1570 181.6983 0005028 356.9038   3.1934 15.36711402328984
STARLINK-1496,45780,53.0441,0.0007938,15.60737672,380.1560469576534,390.8940368153526,1 45780U 20038BC  26147.44579404  .00065072  00000+0  76741-3 0  9991,2 45780  53.0441 157.1251 0007938  36.5031 323.6521 15.60737672329268
STARLINK-1513,45786,53.1591,0.0001359,15.3170115,469.8058052198594,471.6673290554072,1 45786U 20038BJ  26147.80996410  .00000150  00000+0  16587-4 0  9996,2 45786  53.1591 183.1864 0001359  91.4060 268.7097 15.31701150328966
STARLINK-1522,46027,53.0613,0.0003034,15.12501405,526.4790249741291,530.6700175252226,1 46027U 20055A   26147.92737080  .00025407  00000+0  14543-2 0  9993,2 46027  53.0613 128.3537 0003034  20.8875 339.2240 15.12501405320864
STARLINK-1523,46028,53.1579,0.0001239,15.30197359,474.37382368220096,476.072086279044,1 46028U 20055B   26147.94502447  .00001564  00000+0  64919-4 0  9995,2 46028  53.1579 118.5705 0001239  92.9390 267.1753 15.30197359321039
STARLINK-1526,46029,53.1617,0.0001476,15.3020453,474.1899909201802,476.2130964582775,1 46029U 20055C   26147.93869691  .00000131  00000+0  16563-4 0  9993,2 46029  53.1617 118.6139 0001476 113.5945 246.5211 15.30204530321023
STARLINK-1555,46032,53.1588,0.0001198,15.30201116,474.3907060677875,476.03276842523246,1 46032U 20055F   26147.92289979  .00003030  00000+0  11439-3 0  9998,2 46032  53.1588 118.6640 0001198  92.7324 267.3814 15.30201116321028
STARLINK-1556,46033,53.1607,0.0001431,15.30202666,474.22639569339935,476.1878227774632,1 46033U 20055G   26147.64479014  .00004399  00000+0  16055-3 0  9997,2 46033  53.1607 119.9761 0001431  92.7383 267.3781 15.30202666320959
STARLINK-1557,46034,53.1603,0.0001104,15.30193224,474.47868910652596,475.9919137106772,1 46034U 20055H   26147.90920857  .00001314  00000+0  56500-4 0  9997,2 46034  53.1603 118.7420 0001104  97.9940 262.1186 15.30193224320993
STARLINK-1558,46035,53.1612,0.0001299,15.30199425,474.3265356093807,476.1070369230529,1 46035U 20055J   26147.65531816  .00002159  00000+0  85001-4 0  9999,2 46035  53.1612 119.9226 0001299  87.7488 272.3662 15.30199425320980
STARLINK-1560,46036,53.1594,0.0001373,15.30200073,474.2738862452861,476.1558166636951,1 46036U 20055K   26147.64162197  .00001620  00000+0  66819-4 0  9999,2 46036  53.1594 119.9942 0001373  84.9467 275.1690 15.30200073320988
STARLINK-1569,46039,53.1602,0.0001269,15.30202609,474.3375900376086,476.076968815727,1 46039U 20055N   26147.91973624  .00000897  00000+0  42412-4 0  9995,2 46039  53.1602 118.6844 0001269  89.8556 270.2590 15.30202609321012
STARLINK-1582,46043,53.1585,0.0001227,15.3170657,469.8800556632632,471.56076527179084,1 46043U 20055S   26147.94773642  .00002966  00000+0  10728-3 0  9994,2 46043  53.1585 118.0747 0001227  90.5082 269.6060 15.31706570321022
STARLINK-1591,46045,53.1594,0.0001465,15.30185294,474.2549567252545,476.263001747172,1 46045U 20055U   26147.16862399 -.00000729  00000+0 -12507-4 0  9993,2 46045  53.1594 122.1762 0001465  92.0579 268.0589 15.30185294320884
STARLINK-1524,46047,53.1612,0.0001064,15.31698786,470.01489320152723,471.472334996206,1 46047U 20055W   26147.85181210  .00002175  00000+0  81831-4 0  9998,2 46047  53.1612 105.8204 0001064 111.7036 248.4079 15.31698786321195
STARLINK-1527,46048,53.158,0.0001203,15.31711795,469.8809194972664,471.5287508428082,1 46048U 20055X   26147.91240026  .00012341  00000+0  40864-3 0  9993,2 46048  53.1580 105.5211 0001203  99.3408 260.7729 15.31711795321177
STARLINK-1540,46051,53.1606,0.0001213,15.31704908,469.89459776725926,471.5561317769534,1 46051U 20055AA  26147.18069532  .00000035  00000+0  12890-4 0  9993,2 46051  53.1606 109.1360 0001213  82.7241 277.3899 15.31704908321100
STARLINK-1541,46052,53.158,0.0002043,15.80027251,328.9929522558559,331.73404555970956,1 46052U 20055AB  26148.00002315  .00085483  00000+0  44939-3 0  9990,2 46052  53.1580  93.1126 0002043 142.6437 127.9950 15.80027251  5862
STARLINK-1543,46053,53.1599,0.0001156,15.3170633,469.9293978906653,471.5128538893705,1 46053U 20055AC  26147.60945531  .00005725  00000+0  19606-3 0  9996,2 46053  53.1599 106.9458 0001156  95.5591 264.5542 15.31706330321162
STARLINK-1548,46054,53.1589,0.0001343,15.31701439,469.81590204051736,471.65550924925356,1 46054U 20055AD  26147.29719868  .00000270  00000+0  20472-4 0  9998,2 46054  53.1589 108.4731 0001343  87.2284 272.8871 15.31701439321115
